ONEWEB-0220             
1 48232U 21031Y   23263.67969755  .00000159  00000+0  39523-3 0  9995
2 48232  87.8991 128.8838 0001509  66.9969 293.1320 13.14501318116961
ONEWEB-0165             
1 48233U 21031Z   23264.08988038  .00000195  00000+0  49265-3 0  9991
2 48233  87.8987 128.8143 0001674  70.4736 289.6574 13.14500401116975
ONEWEB-0199             
1 48234U 21031AA  23264.07298291  .00000476  00000+0  12498-2 0  9995
2 48234  87.8984 128.7898 0001689  71.4605 288.6708 13.14503122116871
ONEWEB-0203             
1 48235U 21031AB  23263.68181868  .00000171  00000+0  42762-3 0  9993
2 48235  87.8989 128.8666 0002115  80.3930 279.7439 13.14505035116839
ONEWEB-0197             
1 48236U 21031AC  23264.04957136 -.00000268  00000+0 -75792-3 0  9992
2 48236  87.8985 128.8021 0001868  92.4051 267.7292 13.14501770116794
ONEWEB-0194             
1 48237U 21031AD  23263.71352222  .00000125  00000+0  30305-3 0  9992
2 48237  87.8989 128.8579 0002073  84.6439 275.4927 13.14501276116926
ONEWEB-0193             
1 48238U 21031AE  23264.03491117 -.00000138  00000+0 -40670-3 0  9998
2 48238  87.8988 128.8037 0001906  71.6752 288.4585 13.14505145116915
ONEWEB-0191             
1 48239U 21031AF  23263.66489817 -.00000084  00000+0 -26100-3 0  9993
2 48239  87.8995 128.8573 0001883  77.1821 282.9519 13.14505489116727
